[{"OBJECT_NAME":"ONEWEB-0327","OBJECT_ID":"2021-083L","EPOCH":"2026-03-09T19:57:16.761600","MEAN_MOTION":13.18683947,"ECCENTRICITY":0.00013872,"INCLINATION":87.9243,"RA_OF_ASC_NODE":355.1992,"ARG_OF_PERICENTER":72.1565,"MEAN_ANOMALY":287.9718,"EPHEMERIS_TYPE":0,"CLASSIFICATION_TYPE":"U","NORAD_CAT_ID":49196,"ELEMENT_SET_NO":999,"REV_AT_EPOCH":21692,"BSTAR":0.00015807466,"MEAN_MOTION_DOT":7.5e-7,"MEAN_MOTION_DDOT":0},{"OBJECT_NAME":"SL-14 DEB","OBJECT_ID":"1991-056BG","EPOCH":"2026-03-09T19:52:13.204704","MEAN_MOTION":13.19675144,"ECCENTRICITY":0.00085759,"INCLINATION":82.5703,"RA_OF_ASC_NODE":207.5061,"ARG_OF_PERICENTER":310.4458,"MEAN_ANOMALY":49.5918,"EPHEMERIS_TYPE":0,"CLASSIFICATION_TYPE":"U","NORAD_CAT_ID":45318,"ELEMENT_SET_NO":999,"REV_AT_EPOCH":29046,"BSTAR":0.00066831879,"MEAN_MOTION_DOT":2.8e-6,"MEAN_MOTION_DDOT":0}]
